[{"OBJECT_NAME":"CBERS 4","OBJECT_ID":"2014-079A","EPOCH":"2026-03-09T23:48:34.091136","MEAN_MOTION":14.35413289,"ECCENTRICITY":6.249e-5,"INCLINATION":98.3477,"RA_OF_ASC_NODE":128.9942,"ARG_OF_PERICENTER":63.727,"MEAN_ANOMALY":296.398,"EPHEMERIS_TYPE":0,"CLASSIFICATION_TYPE":"U","NORAD_CAT_ID":40336,"ELEMENT_SET_NO":999,"REV_AT_EPOCH":58972,"BSTAR":4.6050106e-5,"MEAN_MOTION_DOT":9.0e-7,"MEAN_MOTION_DDOT":0},{"OBJECT_NAME":"SL-8 R\/B","OBJECT_ID":"1994-083B","EPOCH":"2026-03-09T20:57:01.039680","MEAN_MOTION":14.34423441,"ECCENTRICITY":0.00050759,"INCLINATION":74.0308,"RA_OF_ASC_NODE":226.4362,"ARG_OF_PERICENTER":13.4144,"MEAN_ANOMALY":102.3454,"EPHEMERIS_TYPE":0,"CLASSIFICATION_TYPE":"U","NORAD_CAT_ID":23432,"ELEMENT_SET_NO":999,"REV_AT_EPOCH":63291,"BSTAR":9.6979735e-5,"MEAN_MOTION_DOT":2.47e-6,"MEAN_MOTION_DDOT":0}]
